NORAD_CAT_ID,OBJECT_NAME,OBJECT_TYPE,EPOCH,MEAN_MOTION,ECCENTRICITY,INCLINATION,RA_OF_ASC_NODE,ARG_OF_PERICENTER,MEAN_ANOMALY,BSTAR,MEAN_MOTION_DOT,MEAN_MOTION_DDOT,TLE_LINE0,TLE_LINE1,TLE_LINE2,SEMIMAJOR_AXIS,PERIOD,APOGEE,PERIGEE,DECAYED
54088.0,STARLINK-5153,PAYLOAD,2023-03-20 13:14:43,15.08856809,0.0001093,53.2183,165.5991,95.2479,264.8638,5.4134e-05,5.74e-06,0.0,0 STARLINK-5153,1 54088U 22136AP  23079.55189785  .00000574  00000-0  54134-4 0  9995,2 54088  53.2183 165.5991 0001093  95.2479 264.8638 15.08856809 23163,6917.829,95.436,540.45,538.938,0.0
54088.0,STARLINK-5153,PAYLOAD,2023-03-21 06:43:59,15.08839714,0.0001478,53.2179,162.3295,77.4119,282.7038,0.00011506,1.544e-05,0.0,0 STARLINK-5153,1 54088U 22136AP  23080.28054804  .00001544  00000-0  11506-3 0  9993,2 54088  53.2179 162.3295 0001478  77.4119 282.7038 15.08839714 23743,6917.881,95.438,540.769,538.724,0.0
54088.0,STARLINK-5153,PAYLOAD,2023-03-21 13:05:31,15.08841353,0.000134,53.2176,161.139,77.4393,282.6749,7.0941e-05,8.41e-06,0.0,0 STARLINK-5153,1 54088U 22136AP  23080.54550719  .00000841  00000-0  70941-4 0  9996,2 54088  53.2176 161.1390 0001340  77.4393 282.6749 15.08841353 23318,6917.876,95.437,540.668,538.814,0.0
54088.0,STARLINK-5153,PAYLOAD,2023-03-22 11:20:56,15.08835177,0.0001429,53.2176,156.975,86.5303,273.5853,-6.6164e-05,-1.341e-05,0.0,0 STARLINK-5153,1 54088U 22136AP  23081.47287311 -.00001341  00000-0 -66164-4 0  9994,2 54088  53.2176 156.9750 0001429  86.5303 273.5853 15.08835177 23929,6917.895,95.438,540.749,538.772,0.0
54088.0,STARLINK-5153,PAYLOAD,2023-03-22 16:07:05,15.08839622,0.0001644,53.2162,156.082,87.4723,272.6457,3.193e-05,2.2e-06,0.0,0 STARLINK-5153,1 54088U 22136AP  23081.67159206  .00000220  00000-0  31930-4 0  9993,2 54088  53.2162 156.0820 0001644  87.4723 272.6457 15.08839622 23488,6917.882,95.438,540.884,538.609,0.0
54088.0,STARLINK-5153,PAYLOAD,2023-03-23 11:11:42,15.08851442,0.0001378,53.217,152.5154,82.5635,277.5513,0.00027583,4.106e-05,0.0,0 STARLINK-5153,1 54088U 22136AP  23082.46646688  .00004106  00000-0  27583-3 0  9991,2 54088  53.2170 152.5154 0001378  82.5635 277.5513 15.08851442 24077,6917.845,95.437,540.664,538.757,0.0
54088.0,STARLINK-5153,PAYLOAD,2023-03-24 11:02:29,15.08858717,0.0001642,53.2171,148.055,103.59,256.5275,0.00026096,3.87e-05,0.0,0 STARLINK-5153,1 54088U 22136AP  23083.46006018  .00003870  00000-0  26096-3 0  9994,2 54088  53.2171 148.0550 0001642 103.5900 256.5275 15.08858717 23759,6917.823,95.436,540.824,538.552,0.0
54088.0,STARLINK-5153,PAYLOAD,2023-03-25 04:31:45,15.08821907,0.0001601,53.2158,144.7826,118.2105,241.9049,-0.00032409,-5.44e-05,0.0,0 STARLINK-5153,1 54088U 22136AP  23084.18871682 -.00005440  00000-0 -32409-3 0  9993,2 54088  53.2158 144.7826 0001601 118.2105 241.9049 15.08821907 24331,6917.936,95.439,540.908,538.693,0.0
54088.0,STARLINK-5153,PAYLOAD,2023-03-25 10:53:18,15.08815108,0.0001254,53.2168,143.5911,123.8793,236.2318,-0.00038662,-6.431e-05,0.0,0 STARLINK-5153,1 54088U 22136AP  23084.45368633 -.00006431  00000-0 -38662-3 0  9998,2 54088  53.2168 143.5911 0001254 123.8793 236.2318 15.08815108 24379,6917.956,95.439,540.689,538.954,0.0
54088.0,STARLINK-5153,PAYLOAD,2023-03-25 20:25:37,15.088195,0.000128,53.2176,141.8136,135.381,224.7286,-0.00014684,-2.623e-05,0.0,0 STARLINK-5153,1 54088U 22136AP  23084.85113022 -.00002623  00000-0 -14684-3 0  9999,2 54088  53.2176 141.8136 0001280 135.3810 224.7286 15.08819500 23965,6917.943,95.439,540.694,538.923,0.0
54088.0,STARLINK-5153,PAYLOAD,2023-03-26 04:22:32,15.08842205,0.000124,53.2176,140.3236,117.321,242.7909,9.8979e-05,1.288e-05,0.0,0 STARLINK-5153,1 54088U 22136AP  23085.18232012  .00001288  00000-0  98979-4 0  9991,2 54088  53.2176 140.3236 0001240 117.3210 242.7909 15.08842205 24488,6917.874,95.437,540.596,538.881,0.0
54088.0,STARLINK-5153,PAYLOAD,2023-03-26 20:16:23,15.08846913,0.0001266,53.2173,137.3505,120.8677,239.244,0.00021011,3.058e-05,0.0,0 STARLINK-5153,1 54088U 22136AP  23085.84471829  .00003058  00000-0  21011-3 0  9994,2 54088  53.2173 137.3505 0001266 120.8677 239.2440 15.08846913 24115,6917.859,95.437,540.6,538.848,0.0
54088.0,STARLINK-5153,PAYLOAD,2023-03-27 02:37:56,15.08840377,0.0001108,53.2168,136.1606,125.122,234.9876,0.00052802,8.126e-05,0.0,0 STARLINK-5153,1 54088U 22136AP  23086.10968415  .00008126  00000-0  52802-3 0  9999,2 54088  53.2168 136.1606 0001108 125.1220 234.9876 15.08840377 24624,6917.879,95.438,540.511,538.978,0.0
54088.0,STARLINK-5153,PAYLOAD,2023-03-27 13:45:38,15.08852241,9.93e-05,53.2162,134.0784,118.1507,241.9586,0.00051896,7.984e-05,0.0,0 STARLINK-5153,1 54088U 22136AP  23086.57335718  .00007984  00000-0  51896-3 0  9997,2 54088  53.2162 134.0784 0000993 118.1507 241.9586 15.08852241 24228,6917.843,95.437,540.395,539.021,0.0
54088.0,STARLINK-5153,PAYLOAD,2023-03-27 20:07:10,15.088443,9.9e-05,53.2165,132.8858,104.1502,255.96,0.0001677,2.382e-05,0.0,0 STARLINK-5153,1 54088U 22136AP  23086.83831957  .00002382  00000-0  16770-3 0  9991,2 54088  53.2165 132.8858 0000990 104.1502 255.9600 15.08844300 24269,6917.867,95.437,540.417,539.047,0.0
54088.0,STARLINK-5153,PAYLOAD,2023-03-28 04:04:06,15.08845614,0.000105,53.2173,131.403,113.0338,247.0764,-6.9146e-05,-1.388e-05,0.0,0 STARLINK-5153,1 54088U 22136AP  23087.16951781 -.00001388  00000-0 -69146-4 0  9999,2 54088  53.2173 131.4030 0001050 113.0338 247.0764 15.08845614 24788,6917.863,95.437,540.455,539.002,0.0
54088.0,STARLINK-5153,PAYLOAD,2023-03-28 12:01:01,15.08851436,0.0001088,53.2169,129.9155,108.7569,251.3542,1.7028e-05,-1.7e-07,0.0,0 STARLINK-5153,1 54088U 22136AP  23087.50071337 -.00000017  00000-0  17028-4 0  9996,2 54088  53.2169 129.9155 0001088 108.7569 251.3542 15.08851436 24366,6917.845,95.437,540.463,538.958,0.0
54088.0,STARLINK-5153,PAYLOAD,2023-03-28 19:57:57,15.08847136,9.37e-05,53.2169,128.4284,104.0514,256.0582,-1.5122e-05,-5.28e-06,0.0,0 STARLINK-5153,1 54088U 22136AP  23087.83191418 -.00000528  00000-0 -15122-4 0  9996,2 54088  53.2169 128.4284 0000937 104.0514 256.0582 15.08847136 24418,6917.859,95.437,540.372,539.075,0.0
54088.0,STARLINK-5153,PAYLOAD,2023-03-29 10:16:25,15.08850633,0.0001087,53.217,125.7519,97.4502,262.6614,3.6655e-05,2.96e-06,0.0,0 STARLINK-5153,1 54088U 22136AP  23088.42807147  .00000296  00000-0  36655-4 0  9999,2 54088  53.2170 125.7519 0001087  97.4502 262.6614 15.08850633 24976,6917.848,95.437,540.465,538.961,0.0
54088.0,STARLINK-5153,PAYLOAD,2023-03-29 19:48:44,15.0884368,0.0001085,53.2164,123.969,87.8345,272.2772,-4.8687e-05,-1.063e-05,0.0,0 STARLINK-5153,1 54088U 22136AP  23088.82551504 -.00001063  00000-0 -48687-4 0  9999,2 54088  53.2164 123.9690 0001085  87.8345 272.2772 15.08843680 25039,6917.869,95.437,540.485,538.984,0.0
54088.0,STARLINK-5153,PAYLOAD,2023-03-30 19:39:31,15.08845287,0.0001114,53.2171,119.5081,84.1364,275.9755,0.00010771,1.427e-05,0.0,0 STARLINK-5153,1 54088U 22136AP  23089.81911567  .00001427  00000-0  10771-3 0  9992,2 54088  53.2171 119.5081 0001114  84.1364 275.9755 15.08845287 24716,6917.864,95.437,540.5,538.959,0.0
54088.0,STARLINK-5153,PAYLOAD,2023-03-31 02:01:04,15.08844924,0.0001007,53.217,118.3187,82.3744,277.7363,0.00022312,3.265e-05,0.0,0 STARLINK-5153,1 54088U 22136AP  23090.08407577  .00003265  00000-0  22312-3 0  9990,2 54088  53.2170 118.3187 0001007  82.3744 277.7363 15.08844924 25221,6917.865,95.437,540.427,539.034,0.0
54088.0,STARLINK-5153,PAYLOAD,2023-04-01 05:02:37,15.08837989,0.0001227,53.2167,113.2628,95.6955,264.4177,6.956e-05,8.19e-06,0.0,0 STARLINK-5153,1 54088U 22136AP  23091.21015863  .00000819  00000-0  69560-4 0  9998,2 54088  53.2167 113.2628 0001227  95.6955 264.4177 15.08837989 25393,6917.887,95.438,540.6,538.903,0.0
54088.0,STARLINK-5153,PAYLOAD,2023-04-01 06:38:00,15.08837113,0.0001177,53.2168,112.9653,96.5236,263.589,5.3038e-05,5.56e-06,0.0,0 STARLINK-5153,1 54088U 22136AP  23091.27639909  .00000556  00000-0  53038-4 0  9998,2 54088  53.2168 112.9653 0001177  96.5236 263.5890 15.08837113 24934,6917.889,95.438,540.568,538.94,0.0
54088.0,STARLINK-5153,PAYLOAD,2023-04-01 17:45:42,15.08835733,0.0001134,53.2171,110.8846,94.6451,265.4671,-6.3519e-05,-1.298e-05,0.0,0 STARLINK-5153,1 54088U 22136AP  23091.74008038 -.00001298  00000-0 -63519-4 0  9994,2 54088  53.2171 110.8846 0001134  94.6451 265.4671 15.08835733 25003,6917.893,95.438,540.543,538.974,0.0
54088.0,STARLINK-5153,PAYLOAD,2023-04-02 08:04:11,15.08841578,0.0001374,53.2167,108.207,102.8947,257.2199,-8.792e-06,-4.28e-06,0.0,0 STARLINK-5153,1 54088U 22136AP  23092.33623855 -.00000428  00000-0 -87920-5 0  9997,2 54088  53.2167 108.2070 0001374 102.8947 257.2199 15.08841578 25565,6917.876,95.437,540.691,538.79,0.0
54088.0,STARLINK-5153,PAYLOAD,2023-04-02 09:39:34,15.08843193,0.0001333,53.217,107.9107,98.4083,261.706,-9.3456e-06,-4.37e-06,0.0,0 STARLINK-5153,1 54088U 22136AP  23092.40247792 -.00000437  00000-0 -93456-5 0  9998,2 54088  53.2170 107.9107 0001333  98.4083 261.7060 15.08843193 25104,6917.871,95.437,540.658,538.813,0.0
54088.0,STARLINK-5153,PAYLOAD,2023-04-02 17:36:29,15.08844862,0.0001135,53.2178,106.4234,98.085,262.0271,-1.8877e-05,-5.88e-06,0.0,0 STARLINK-5153,1 54088U 22136AP  23092.73367862 -.00000588  00000-0 -18877-4 0  9995,2 54088  53.2178 106.4234 0001135  98.0850 262.0271 15.08844862 25152,6917.866,95.437,540.516,538.945,0.0
54088.0,STARLINK-5153,PAYLOAD,2023-04-03 04:44:12,15.08836062,0.000118,53.2182,104.3422,99.7229,260.3897,0.00015945,2.25e-05,0.0,0 STARLINK-5153,1 54088U 22136AP  23093.19736345  .00002250  00000-0  15945-3 0  9990,2 54088  53.2182 104.3422 0001180  99.7229 260.3897 15.08836062 25698,6917.892,95.438,540.574,538.941,0.0
54088.0,STARLINK-5153,PAYLOAD,2023-04-03 06:19:35,15.08837432,0.0001196,53.2179,104.0448,99.6335,260.4792,0.0001735,2.474e-05,0.0,0 STARLINK-5153,1 54088U 22136AP  23093.26360276  .00002474  00000-0  17350-3 0  9994,2 54088  53.2179 104.0448 0001196  99.6335 260.4792 15.08837432 25230,6917.888,95.438,540.581,538.926,0.0
